IRIDIUM 126             
1 42809U 17039G   23255.85401434  .00000159  00000+0  49582-4 0  9995
2 42809  86.3946  55.0250 0002336  92.8112 267.3352 14.34219405325422
IRIDIUM 124             
1 42810U 17039H   23255.84332223  .00000669  00000+0  19300-3 0  9995
2 42810  86.4555 351.8036 0002063  91.6531 268.4906 14.43283292329672
IRIDIUM 128             
1 42811U 17039J   23255.77499334  .00000153  00000+0  47670-4 0  9995
2 42811  86.3910  86.6096 0002212  85.6832 274.4617 14.34218939325442
IRIDIUM 121             
1 42812U 17039K   23255.87304576  .00000161  00000+0  50296-4 0  9997
2 42812  86.3946  55.0382 0002141  91.9286 268.2155 14.34218225325305
IRIDIUM 133             
1 42955U 17061A   23255.59739637  .00000139  00000+0  42724-4 0  9991
2 42955  86.3914  86.7773 0002287  90.3774 269.7684 14.34219453310210
IRIDIUM 100             
1 42956U 17061B   23255.66081959  .00000137  00000+0  41848-4 0  9991
2 42956  86.3910  86.6929 0002218  88.6433 271.5017 14.34217529310229
IRIDIUM 122             
1 42957U 17061C   23255.76864904  .00000137  00000+0  41760-4 0  9995
2 42957  86.3910  86.6454 0002250  85.4703 274.6750 14.34218014310244
IRIDIUM 129             
1 42958U 17061D   23255.65448675  .00000138  00000+0  42196-4 0  9992
2 42958  86.3910  86.7497 0002249  88.0929 272.0524 14.34217248310249
